SL-14 R/B               
1 18749U 88001B   21278.49938078  .00000136  00000-0  13661-4 0  9995
2 18749  82.5108 272.4321 0019006 168.0387 342.5200 14.83277153823386
COSMOS 1933             
1 18958U 88020A   21278.80528943  .00000301  00000-0  19682-4 0  9992
2 18958  82.5328  26.4763 0010703 340.7864  19.2957 15.04019878806529
SL-3 R/B                
1 19046U 88032B   21278.85578477 -.00000045  00000-0  10314-5 0  9996
2 19046  97.3881 284.3277 0038125  28.8888 331.4437 15.03023841808369
SL-16 R/B               
1 19120U 88039B   21279.01378492  .00000090  00000-0  65667-4 0  9999
2 19120  71.0138 243.6281 0024120 295.4420  64.4209 14.19224441729393
COSMOS 1953             
1 19210U 88050A   21279.05933837  .00000313  00000-0  19229-4 0  9997
2 19210  82.5146 308.0354 0011290 295.3639  64.6419 15.06402188814383
SL-8 R/B                
1 19257U 88053B   21278.89944928  .00000030  00000-0  18781-4 0  9993
2 19257  74.0494 206.7195 0019265  66.8268 355.1630 14.37531793744329
COSMOS 1975             
1 19573U 88093A   21278.45055242  .00001341  00000-0  91655-4 0  9999
2 19573  82.5173 263.9509 0013771 349.1618  10.9310 15.05302354774918
SL-14 R/B               
1 19574U 88093B   21279.07157397  .00000127  00000-0  12507-4 0  9993
2 19574  82.5289 115.2920 0020982 337.5122 144.9089 14.83388490782466
SL-16 R/B               
1 19650U 88102B   21278.41115412  .00000243  00000-0  14765-3 0  9994
2 19650  70.9997 311.1639 0016156 306.0976  53.8651 14.15811388698100
INTERCOSMOS 24          
1 20261U 89080A   21278.83728164  .00000170  00000-0  41270-4 0  9991
2 20261  82.5992  72.6187 1203284  70.8395 301.8853 12.56215428463682
SL-14 R/B               
1 20262U 89080C   21279.01179719  .00000080  00000-0  24087-4 0  9996
2 20262  82.5912 129.3214 1235857 272.8021  73.2608 12.48984217457925
DELTA 2 R/B(1)          
1 20303U 89085B   21278.38362373  .00004626  00000-0  14001-3 0  9990
2 20303  35.6421 261.7724 0087510  86.7608 274.3128 15.30025094741318
DELTA 1 R/B             
1 20323U 89089B   21278.79533028  .00000102  00000-0  35354-4 0  9998
2 20323  97.1173 355.8909 0071895 174.6675 185.5303 14.48422193661674
ARIANE 40 R/B           
1 20443U 90005H   21278.78333427  .00000038  00000-0  26908-4 0  9994
2 20443  98.5183 344.2048 0010483  12.7197 347.4252 14.38145842660433
DELTA 2 R/B(1)          
1 20453U 90008B   21278.59316292  .00003131  00000-0  17072-3 0  9996
2 20453  35.6264 331.8299 0275969 315.0321  42.8345 14.87063678681922
COSMOS 2058             
1 20465U 90010A   21278.80195468  .00000643  00000-0  51671-4 0  9995
2 20465  82.4917 175.8522 0016545  42.6652 317.5852 14.98297540699493
SL-14 R/B               
1 20466U 90010B   21278.45194735  .00000131  00000-0  13699-4 0  9993
2 20466  82.5051 342.2359 0019645 213.4628 146.5346 14.81440823689052
SL-14 R/B               
1 20511U 90018B   21278.47210492  .00000130  00000-0  14021-4 0  9992
2 20511  82.5198 290.7157 0017519   5.2413 108.2919 14.80094940683379
HST                     
1 20580U 90037B   21278.44376608  .00001008  00000-0  49892-4 0  9997
2 20580  28.4704  57.2452 0002659 162.9539 241.6824 15.09763443527636
SL-16 R/B               
1 20625U 90046B   21278.88357823  .00000126  00000-0  90304-4 0  9997
2 20625  70.9968  90.2746 0016194 243.3251 116.6213 14.14669895620107
COSMOS 2084             
1 20663U 90055A   21278.44563225  .00000186  00000-0  35088-4 0  9990
2 20663  62.7956  21.9355 0086549  21.5922 338.8785 14.92321489694231
SL-6 R/B(2)             
1 20666U 90055D   21278.41902591  .00000287  00000-0  42718-4 0  9993
2 20666  62.7838 297.2398 0111089  46.7865 314.2440 14.92571855696187
SL-8 R/B                
1 20775U 90078B   21278.89331353  .00003464  00000-0  16459-3 0  9995
2 20775  82.9298 193.9710 0565502 159.5685 202.9161 14.36467896573946
SL-8 R/B                
1 21088U 91006B   21278.48185396  .00000137  00000-0  12310-3 0  9990
2 21088  82.9386 292.0354 0021347 239.2978 230.3715 13.77181207541591
OKEAN-3                 
1 21397U 91039A   21278.94891039  .00000460  00000-0  41508-4 0  9999
2 21397  82.5192  84.6419 0018270  22.7470 337.4556 14.93172987644270
COSMOS 2151             
1 21422U 91042A   21278.82030337  .00000347  00000-0  31364-4 0  9998
2 21422  82.5035 190.3097 0015764  84.9566 275.3453 14.92309493642854
SL-14 R/B               
1 21423U 91042B   21279.08467434  .00000114  00000-0  11943-4 0  9993
2 21423  82.4907 292.3536 0018628 137.4263 222.8398 14.79843919635042
ERS-1                   
1 21574U 91050A   21278.86665009  .00000060  00000-0  34851-4 0  9995
2 21574  98.6605 240.1224 0032263 315.6638  44.1965 14.37818562583435
ARIANE 40 R/B           
1 21610U 91050F   21278.80027810  .00000061  00000-0  32626-4 0  9991
2 21610  98.4138 347.8627 0002028 270.5283 199.4707 14.40967441586153
INTERCOSMOS 25          
1 21819U 91086A   21278.83765935  .00001707  00000-0  34422-3 0  9994
2 21819  82.5938 201.3911 1515725 338.9384  15.5143 12.05379984301572
SL-8 R/B                
1 21876U 92008B   21278.84925531  .00000016  00000-0  94160-6 0  9993
2 21876  82.9308  29.0685 0033973 328.5623 179.7005 13.75681736487230
SL-8 R/B                
1 21938U 92020B   21278.47725498 -.00000064  00000-0 -83015-4 0  9995
2 21938  82.9258 273.8836 0030377 126.6298 343.0790 13.75287610478960
COSMOS 2219             
1 22219U 92076A   21278.86474310 -.00000242  00000-0 -10337-3 0  9990
2 22219  71.0588 154.5716 0017084 155.8485 204.3442 14.13663768489995
SL-16 R/B               
1 22220U 92076B   21278.41893425 -.00000037  00000-0  53039-5 0  9994
2 22220  71.0023 351.7443 0011582  29.4491  46.3624 14.16473680492938
COSMOS 2221             
1 22236U 92080A   21278.78282394  .00000397  00000-0  40327-4 0  9996
2 22236  82.5115  14.4566 0016683 178.6241 181.5025 14.88112454539959
SL-16 R/B               
1 22285U 92093B   21278.90171683  .00000221  00000-0  13833-3 0  9993
2 22285  71.0215 155.0562 0006388 257.7230 102.3178 14.15068122484550
COSMOS 2228             
1 22286U 92094A   21278.39564780  .00000400  00000-0  40403-4 0  9995
2 22286  82.5208 331.6363 0019729 305.8415  54.0969 14.88336270535082
SL-16 R/B               
1 22566U 93016B   21278.46134056 -.00000274  00000-0 -11684-3 0  9997
2 22566  71.0102   8.6571 0012787 264.3953  95.5712 14.14974902473529
COSMOS 2242             
1 22626U 93024A   21278.82402136  .00000347  00000-0  34887-4 0  9990
2 22626  82.5251 359.5538 0017523 304.8285  55.1284 14.88185607539537
SL-16 R/B               
1 22803U 93059B   21278.90046663  .00000233  00000-0  13978-3 0  9994
2 22803  70.9906 177.2881 0016286 158.9103 201.2695 14.16844812450645
ARIANE 40 R/B           
1 22830U 93061H   21279.02931980  .00000029  00000-0  27798-4 0  9995
2 22830  98.7020 336.8974 0010995  13.3221 346.8250 14.31492560463117
COSMOS 2278             
1 23087U 94023A   21278.48639013  .00000168  00000-0  11374-3 0  9996
2 23087  71.0547 314.7334 0010208 325.0437  35.0014 14.13841553416331
SL-16 R/B               
1 23088U 94023B   21278.84277840 -.00000289  00000-0 -12513-3 0  9995
2 23088  70.9994 223.3003 0005508 248.8253 111.2281 14.14695688417543
SL-16 R/B               
1 23343U 94074B   21279.06322705  .00000073  00000-0  17656-4 0  9994
2 23343  97.9338 331.9372 0008095  63.6100 356.1749 14.76904770448828
SL-16 R/B               
1 23405U 94077B   21279.02624351  .00000095  00000-0  73471-4 0  9995
2 23405  70.9827 150.4951 0000384 134.5460 225.5694 14.15247055387894
ERS-2                   
1 23560U 95021A   21278.36764272  .00002207  00000-0  94075-4 0  9990
2 23560  98.5335 143.7259 0003613  14.4932 345.6405 15.24283240414432
ARIANE 40+ R/B          
1 23561U 95021B   21278.40026633  .00000076  00000-0  40185-4 0  9993
2 23561  98.6630 329.2055 0005843 286.7002  83.9381 14.38049123386837
SL-16 R/B               
1 23705U 95058B   21278.45120583 -.00000123  00000-0 -38908-4 0  9992
2 23705  71.0241 332.3372 0010441  55.9325 304.2787 14.15157052339171
SL-16 R/B               
1 24298U 96051B   21278.42605754 -.00000139  00000-0 -48824-4 0  9994
2 24298  70.8259 348.9601 0015263 356.8397   3.2624 14.12413603293429
ORBVIEW 2 (SEASTAR)     
1 24883U 97037A   21278.84169461  .00000068  00000-0  40822-4 0  9994
2 24883  98.6545  36.8408 0003181 127.8882 232.2590 14.33638512276826
SL-16 R/B               
1 25400U 98043G   21278.84477351 -.00000009  00000-0  14724-4 0  9996
2 25400  98.6451 213.0904 0010576  35.3992 324.7888 14.25483886208970
SL-16 R/B               
1 25407U 98045B   21278.46750527 -.00000173  00000-0 -63595-4 0  9995
2 25407  71.0134 339.2787 0009128 316.1240  43.9157 14.15844642198312
ISS (ZARYA)             
1 25544U 98067A   21279.09922992  .00002701  00000-0  57304-4 0  9996
2 25544  51.6445 154.3170 0004307  62.1202 101.5550 15.48933718305784
CZ-4B R/B               
1 25732U 99025C   21279.08852762  .00000009  00000-0  26637-4 0  9990
2 25732  98.8924 315.7383 0036372 294.7020 119.1798 14.17700730159355
OKEAN-O                 
1 25860U 99039A   21278.36521811  .00000119  00000-0  24583-4 0  9995
2 25860  98.1746 310.5691 0001690 107.9462 252.1931 14.76765757195607
SL-16 R/B               
1 25861U 99039B   21278.30866833  .00000105  00000-0  21777-4 0  9993
2 25861  98.2019 295.7933 0016892  74.2693 296.6911 14.78667598197796
DELTA 2 R/B             
1 25876U 99041E   21278.34163599  .00000246  00000-0  80957-4 0  9996
2 25876  51.7669 235.3622 0530640 289.3211  65.1079 14.04648731135365
HELIOS 1B               
1 25977U 99064A   21279.04645537  .00000104  00000-0  20061-4 0  9991
2 25977  98.3228  97.9694 0000381 165.7225 194.3998 14.82588573176882
TERRA                   
1 25994U 99068A   21278.93168669  .00000106  00000-0  33484-4 0  9992
2 25994  98.1673 351.2837 0001336  91.3255  23.2367 14.57134010159556
